     3.00           N: GNSS NAV DATA    E: Galileo          RINEX VERSION / TYPE
PREC2NAV                                20121215 063309 UTC PGM / RUN BY / DATE 
SOURCE: data/tum%W%D.sp3                                    COMMENT             
                                                            END OF HEADER       
E12 2012 11  9 14  0  0  .470423164400E-03  .850842615385E-10  .000000000000E+00
      .800000000000E+01 -.922086939533E+02  .365783861769E-08  .147848390587E+00
     -.426297845122E-05 -.393840496331E-04  .606400282169E-05  .544060260188E+04
      .482400000000E+06  .273029105387E-07  .131594719959E+01 -.170235908767E-07
      .956061099656E+00  .209212272595E+03 -.644313544049E+01 -.596153662050E-08
     -.350971073825E-09  .000000000000E+00  .171300000000E+04  .000000000000E+00
      .240000000000E+01  .000000000000E+00  .000000000000E+00  .000000000000E+00
      .486000000000E+06  .000000000000E+00
E11 2012 11  9 16  0  0  .266277904760E-03  .385490620513E-09  .000000000000E+00
      .900000000000E+01 -.908706170150E+02  .371228103116E-08 -.118989884578E+01
     -.415463799508E-05  .142520677864E-03  .620217436506E-05  .544060417486E+04
      .489600000000E+06  .467012238300E-07  .131593036674E+01 -.131896069794E-07
      .956046826416E+00  .207220643432E+03  .136659050093E+01 -.596874882731E-08
     -.307027174226E-09  .000000000000E+00  .171300000000E+04  .000000000000E+00
      .240000000000E+01  .000000000000E+00  .000000000000E+00  .000000000000E+00
      .493200000000E+06  .000000000000E+00
E12 2012 11  9 16  0  0  .471035840480E-03  .850953051282E-10  .000000000000E+00
      .900000000000E+01 -.934849749126E+02  .366665856120E-08 -.210612138841E+01
     -.433972129976E-05  .405854793946E-04  .652700110830E-05  .544060030398E+04
      .489600000000E+06  .389821829314E-07  .131590451385E+01  .854425415688E-08
      .956058713320E+00  .198609942340E+03  .298665438079E+01 -.592857222285E-08
     -.362436366111E-09  .000000000000E+00  .171300000000E+04  .000000000000E+00
      .240000000000E+01  .000000000000E+00  .000000000000E+00  .000000000000E+00
      .493200000000E+06  .000000000000E+00
E11 2012 11  9 18  0  0  .269053506800E-03  .385514517949E-09  .000000000000E+00
      .100000000000E+02 -.880823059770E+02  .365465422335E-08 -.299683684825E+00
     -.417115073295E-05  .142898134084E-03  .652083132619E-05  .544060425042E+04
      .496800000000E+06  .439414037616E-07  .131588769704E+01  .238347722973E-07
      .956044722461E+00  .200398754700E+03  .136900885273E+01 -.593416101630E-08
     -.325018437033E-09  .000000000000E+00  .171300000000E+04  .000000000000E+00
      .240000000000E+01  .000000000000E+00  .000000000000E+00  .000000000000E+00
      .500400000000E+06  .000000000000E+00
E12 2012 11  9 18  0  0  .471648438360E-03  .850715871795E-10  .000000000000E+00
      .100000000000E+02 -.849628376316E+02  .361199445787E-08 -.118789033443E+01
     -.400860015008E-05  .401175927405E-04  .660941354724E-05  .544060250063E+04
      .496800000000E+06  .565752393832E-07  .131586146059E+01  .669660938676E-07
      .956056203020E+00  .194488646736E+03  .296105696428E+01 -.593553939973E-08
     -.312223201400E-09  .000000000000E+00  .171300000000E+04  .000000000000E+00
      .240000000000E+01  .000000000000E+00  .000000000000E+00  .000000000000E+00
      .500400000000E+06  .000000000000E+00
E11 2012 11  9 20  0  0  .271829102200E-03  .385488725641E-09  .000000000000E+00
      .110000000000E+02 -.812541345127E+02  .358870711824E-08  .596235718134E+00
     -.390383600995E-05  .142971265420E-03  .625364174294E-05  .544060424675E+04
      .504000000000E+06  .317503576074E-07  .131584472074E+01  .762131432912E-07
      .956042495366E+00  .201032480294E+03  .136572137996E+01 -.593029678051E-08
     -.285344515391E-09  .000000000000E+00  .171300000000E+04  .000000000000E+00
      .240000000000E+01  .000000000000E+00  .000000000000E+00  .000000000000E+00
      .507600000000E+06  .000000000000E+00
E12 2012 11  9 20  0  0  .472260959840E-03  .850734333333E-10  .000000000000E+00
      .110000000000E+02 -.738988671060E+02  .360901008359E-08 -.330788353202E+00
     -.343566525409E-05  .390086718055E-04  .627261999435E-05  .544059883109E+04
      .504000000000E+06 -.343001576623E-07  .131581845006E+01  .502519699291E-07
      .956054420653E+00  .201422398936E+03  .299658970389E+01 -.588513018947E-08
     -.250049498482E-09  .000000000000E+00  .171300000000E+04  .000000000000E+00
      .240000000000E+01  .000000000000E+00  .000000000000E+00  .000000000000E+00
      .507600000000E+06  .000000000000E+00
E11 2012 11  9 22  0  0  .274604688560E-03  .385494371795E-09  .000000000000E+00
      .120000000000E+02 -.737647173007E+02  .355006650779E-08  .149329395801E+01
     -.342114314174E-05  .142106577023E-03  .602112492989E-05  .544060221343E+04
      .511200000000E+06 -.197340952640E-07  .131580189198E+01  .359573240743E-07
      .956040811507E+00  .206492751476E+03  .136129644521E+01 -.588566458063E-08
     -.246183210099E-09  .000000000000E+00  .171300000000E+04  .000000000000E+00
      .240000000000E+01  .000000000000E+00  .000000000000E+00  .000000000000E+00
      .514800000000E+06  .000000000000E+00
E12 2012 11  9 22  0  0  .472873543760E-03  .850989512821E-10  .000000000000E+00
      .120000000000E+02 -.735816813682E+02  .352489448430E-08  .551216390811E+00
     -.341357629939E-05  .419230209179E-04  .543502419230E-05  .544060494124E+04
      .511200000000E+06 -.636763776483E-07  .131577596367E+01  .125793934731E-07
      .956052460000E+00  .222141466043E+03 -.327596700837E+01 -.591888448134E-08
     -.240159919627E-09  .000000000000E+00  .171300000000E+04  .000000000000E+00
      .240000000000E+01  .000000000000E+00  .000000000000E+00  .000000000000E+00
      .514800000000E+06  .000000000000E+00
E11 2012 11 10  0  0  0  .277379755640E-03  .385355284615E-09  .000000000000E+00
      .130000000000E+02 -.694455482407E+02  .344573064770E-08  .236749625730E+01
     -.322896437905E-05  .141258238143E-03  .526277763060E-05  .544060790552E+04
      .518400000000E+06 -.648835604059E-07  .131575958935E+01  .919111544757E-07
      .956039087350E+00  .225333212503E+03 -.490346022580E+01 -.587077029661E-08
     -.268734818690E-09  .000000000000E+00  .171300000000E+04  .000000000000E+00
      .240000000000E+01  .000000000000E+00  .000000000000E+00  .000000000000E+00
      .522000000000E+06  .000000000000E+00
E12 2012 11 10  0  0  0  .473485902200E-03  .849884641026E-10  .000000000000E+00
      .130000000000E+02 -.770030054906E+02  .355315534680E-08  .146063142392E+01
     -.360323826148E-05  .419190445815E-04  .516259582397E-05  .544060371472E+04
      .518400000000E+06 -.636399943042E-08  .131573286103E+01  .204533552424E-08
      .956050677535E+00  .228127814168E+03 -.329275054914E+01 -.595787233698E-08
     -.193116443722E-09  .000000000000E+00  .171300000000E+04  .000000000000E+00
      .240000000000E+01  .000000000000E+00  .000000000000E+00  .000000000000E+00
      .522000000000E+06  .000000000000E+00
